NORAD_CAT_ID,OBJECT_NAME,OBJECT_TYPE,EPOCH,MEAN_MOTION,ECCENTRICITY,INCLINATION,RA_OF_ASC_NODE,ARG_OF_PERICENTER,MEAN_ANOMALY,BSTAR,MEAN_MOTION_DOT,MEAN_MOTION_DDOT,TLE_LINE0,TLE_LINE1,TLE_LINE2,SEMIMAJOR_AXIS,PERIOD,APOGEE,PERIGEE,DECAYED
52453.0,STARLINK-3872,PAYLOAD,2024-06-10 20:56:26,15.08843959,0.0002407,53.2171,47.9019,92.6661,267.4607,0.00041493,6.322e-05,0.0,0 STARLINK-3872,1 52453U 22049C   24162.87252572  .00006322  00000-0  41493-3 0  9996,2 52453  53.2171  47.9019 0002407  92.6661 267.4607 15.08843959116139,6917.868,95.437,541.398,538.068,0.0
52453.0,STARLINK-3872,PAYLOAD,2024-06-10 22:31:49,15.08839525,0.0001069,53.2169,47.6087,88.1741,271.9373,0.0001921,2.771e-05,0.0,0 STARLINK-3872,1 52453U 22049C   24162.93876426  .00002771  00000-0  19210-3 0  9999,2 52453  53.2169  47.6087 0001069  88.1741 271.9373 15.08839525115986,6917.882,95.438,540.486,539.007,0.0
52453.0,STARLINK-3872,PAYLOAD,2024-06-11 09:39:30,15.08861446,0.0001289,53.2171,45.5264,87.1992,272.9147,0.00073306,0.00011405,0.0,0 STARLINK-3872,1 52453U 22049C   24163.40243766  .00011405  00000-0  73306-3 0  9997,2 52453  53.2171  45.5264 0001289  87.1992 272.9147 15.08861446116050,6917.815,95.436,540.572,538.788,0.0
52453.0,STARLINK-3872,PAYLOAD,2024-06-11 22:22:35,15.08855537,0.0001345,53.2174,43.1472,116.0629,244.0501,0.00055327,8.532e-05,0.0,0 STARLINK-3872,1 52453U 22049C   24163.93235747  .00008532  00000-0  55327-3 0  9995,2 52453  53.2174  43.1472 0001345 116.0629 244.0501 15.08855537116294,6917.833,95.437,540.628,538.767,0.0
52453.0,STARLINK-3872,PAYLOAD,2024-06-12 20:37:59,15.08839848,0.0001194,53.2159,38.9831,98.4092,261.7035,0.00014556,2.029e-05,0.0,0 STARLINK-3872,1 52453U 22049C   24164.85972104  .00002029  00000-0  14556-3 0  9996,2 52453  53.2159  38.9831 0001194  98.4092 261.7035 15.08839848116438,6917.881,95.438,540.572,538.92,0.0
52453.0,STARLINK-3872,PAYLOAD,2024-06-12 22:13:23,15.08838138,0.0001271,53.2169,38.6854,98.7832,261.3304,8.7256e-07,-2.74e-06,0.0,0 STARLINK-3872,1 52453U 22049C   24164.92596163 -.00000274  00000-0  87256-6 0  9992,2 52453  53.2169  38.6854 0001271  98.7832 261.3304 15.08838138116281,6917.886,95.438,540.63,538.872,0.0
52453.0,STARLINK-3872,PAYLOAD,2024-06-13 01:24:09,15.08838858,0.0001202,53.2165,38.0915,94.3683,265.7446,-4.3525e-06,-3.57e-06,0.0,0 STARLINK-3872,1 52453U 22049C   24165.05844210 -.00000357  00000-0 -43525-5 0  9999,2 52453  53.2165  38.0915 0001202  94.3683 265.7446 15.08838858116306,6917.884,95.438,540.58,538.917,0.0
52453.0,STARLINK-3872,PAYLOAD,2024-06-13 22:04:10,15.08835286,0.000136,53.2175,34.2251,106.2991,253.8151,5.7066e-05,6.2e-06,0.0,0 STARLINK-3872,1 52453U 22049C   24165.91956698  .00000620  00000-0  57066-4 0  9993,2 52453  53.2175  34.2251 0001360 106.2991 253.8151 15.08835286116435,6917.895,95.438,540.701,538.819,0.0
52453.0,STARLINK-3872,PAYLOAD,2024-06-14 01:14:56,15.08836004,0.0001248,53.2169,33.6302,90.2326,269.8809,5.9384e-05,6.57e-06,0.0,0 STARLINK-3872,1 52453U 22049C   24166.05204751  .00000657  00000-0  59384-4 0  9990,2 52453  53.2169  33.6302 0001248  90.2326 269.8809 15.08836004116455,6917.893,95.438,540.621,538.894,0.0
52453.0,STARLINK-3872,PAYLOAD,2024-06-14 20:19:34,15.088355,0.0001222,53.2181,30.0616,90.66,269.4532,0.00014886,2.082e-05,0.0,0 STARLINK-3872,1 52453U 22049C   24166.84692926  .00002082  00000-0  14886-3 0  9993,2 52453  53.2181  30.0616 0001222  90.6600 269.4532 15.08835500116571,6917.894,95.438,540.605,538.914,0.0
52453.0,STARLINK-3872,PAYLOAD,2024-06-15 13:48:48,15.08843837,0.0001537,53.2195,26.7988,116.3699,243.7451,0.00020591,2.991e-05,0.0,0 STARLINK-3872,1 52453U 22049C   24167.57556523  .00002991  00000-0  20591-3 0  9995,2 52453  53.2195  26.7988 0001537 116.3699 243.7451 15.08843837116840,6917.869,95.437,540.797,538.67,0.0
52453.0,STARLINK-3872,PAYLOAD,2024-06-15 21:45:44,15.08837945,0.0001314,53.2178,25.3072,94.741,265.3732,3.9191e-05,3.36e-06,0.0,0 STARLINK-3872,1 52453U 22049C   24167.90676909  .00000336  00000-0  39191-4 0  9991,2 52453  53.2178  25.3072 0001314  94.7410 265.3732 15.08837945116736,6917.887,95.438,540.661,538.843,0.0
52453.0,STARLINK-3872,PAYLOAD,2024-06-16 07:18:02,15.0885319,0.000143,53.2191,23.5225,87.5455,272.57,0.00023153,3.4e-05,0.0,0 STARLINK-3872,1 52453U 22049C   24168.30420116  .00003400  00000-0  23153-3 0  9998,2 52453  53.2191  23.5225 0001430  87.5455 272.5700 15.08853190116790,6917.84,95.437,540.694,538.716,0.0
52453.0,STARLINK-3872,PAYLOAD,2024-06-16 21:36:31,15.08839249,0.0001386,53.2183,20.8451,76.787,283.3276,-4.2193e-05,-9.59e-06,0.0,0 STARLINK-3872,1 52453U 22049C   24168.90036963 -.00000959  00000-0 -42193-4 0  9991,2 52453  53.2183  20.8451 0001386  76.7870 283.3276 15.08839249116880,6917.883,95.438,540.707,538.789,0.0
52453.0,STARLINK-3872,PAYLOAD,2024-06-17 21:27:19,15.08840518,0.0001486,53.2186,16.386,82.7749,277.3412,0.00013286,1.827e-05,0.0,0 STARLINK-3872,1 52453U 22049C   24169.89397066  .00001827  00000-0  13286-3 0  9997,2 52453  53.2186  16.3860 0001486  82.7749 277.3412 15.08840518117034,6917.879,95.438,540.772,538.716,0.0
52453.0,STARLINK-3872,PAYLOAD,2024-06-18 06:59:37,15.08850395,0.00015,53.2185,14.6018,81.4574,278.6588,0.00030641,4.593e-05,0.0,0 STARLINK-3872,1 52453U 22049C   24170.29140692  .00004593  00000-0  30641-3 0  9991,2 52453  53.2185  14.6018 0001500  81.4574 278.6588 15.08850395117254,6917.849,95.437,540.751,538.676,0.0
52453.0,STARLINK-3872,PAYLOAD,2024-06-18 19:42:42,15.08842553,0.0001387,53.2179,12.2225,85.3799,274.7351,0.00020365,2.955e-05,0.0,0 STARLINK-3872,1 52453U 22049C   24170.82132983  .00002955  00000-0  20365-3 0  9996,2 52453  53.2179  12.2225 0001387  85.3799 274.7351 15.08842553117337,6917.873,95.437,540.697,538.778,0.0
52453.0,STARLINK-3872,PAYLOAD,2024-06-18 21:18:05,15.08844859,0.0001406,53.2177,11.9243,85.7368,274.3785,0.00018182,2.607e-05,0.0,0 STARLINK-3872,1 52453U 22049C   24170.88756827  .00002607  00000-0  18182-3 0  9999,2 52453  53.2177  11.9243 0001406  85.7368 274.3785 15.08844859117180,6917.866,95.437,540.703,538.758,0.0
52453.0,STARLINK-3872,PAYLOAD,2024-06-19 06:50:24,15.08850992,0.0001426,53.2177,10.1402,85.7825,274.333,0.00025867,3.832e-05,0.0,0 STARLINK-3872,1 52453U 22049C   24171.28500462  .00003832  00000-0  25867-3 0  9995,2 52453  53.2177  10.1402 0001426  85.7825 274.3330 15.08850992117246,6917.847,95.437,540.698,538.725,0.0
52453.0,STARLINK-3872,PAYLOAD,2024-06-19 19:33:29,15.08838069,0.0001561,53.2191,7.7602,104.2251,255.8915,-1.2832e-05,-4.92e-06,0.0,0 STARLINK-3872,1 52453U 22049C   24171.81493044 -.00000492  00000-0 -12832-4 0  9991,2 52453  53.2191   7.7602 0001561 104.2251 255.8915 15.08838069117486,6917.886,95.438,540.831,538.671,0.0
52453.0,STARLINK-3872,PAYLOAD,2024-06-20 13:02:44,15.08840778,0.0001472,53.2175,4.4874,105.0777,255.0378,0.00010208,1.337e-05,0.0,0 STARLINK-3872,1 52453U 22049C   24172.54356906  .00001337  00000-0  10208-3 0  9998,2 52453  53.2175   4.4874 0001472 105.0777 255.0378 15.08840778117436,6917.878,95.438,540.761,538.725,0.0
52453.0,STARLINK-3872,PAYLOAD,2024-06-20 19:24:16,15.08843291,0.0001433,53.2173,3.2973,116.4412,243.6727,8.8101e-05,1.115e-05,0.0,0 STARLINK-3872,1 52453U 22049C   24172.80852692  .00001115  00000-0  88101-4 0  9992,2 52453  53.2173   3.2973 0001433 116.4412 243.6727 15.08843291117478,6917.87,95.437,540.727,538.744,0.0
52453.0,STARLINK-3872,PAYLOAD,2024-06-21 12:53:31,15.08838645,0.0001518,53.2195,0.0289,93.2558,266.8607,0.00016364,2.317e-05,0.0,0 STARLINK-3872,1 52453U 22049C   24173.53717029  .00002317  00000-0  16364-3 0  9993,2 52453  53.2195   0.0289 0001518  93.2558 266.8607 15.08838645117745,6917.885,95.438,540.8,538.699,0.0
52453.0,STARLINK-3872,PAYLOAD,2024-06-21 22:25:50,15.08840771,0.0001325,53.2188,358.2438,88.5569,271.5575,9.9312e-05,1.293e-05,0.0,0 STARLINK-3872,1 52453U 22049C   24173.93461057  .00001293  00000-0  99312-4 0  9991,2 52453  53.2188 358.2438 0001325  88.5569 271.5575 15.08840771117645,6917.878,95.438,540.66,538.826,0.0
52453.0,STARLINK-3872,PAYLOAD,2024-06-22 12:44:18,15.08839423,0.0001314,53.2188,355.5675,88.1526,271.9617,8.2868e-05,1.031e-05,0.0,0 STARLINK-3872,1 52453U 22049C   24174.53077270  .00001031  00000-0  82868-4 0  9996,2 52453  53.2188 355.5675 0001314  88.1526 271.9617 15.08839423117738,6917.882,95.438,540.656,538.838,0.0
52453.0,STARLINK-3872,PAYLOAD,2024-06-22 19:05:51,15.08837033,0.0001275,53.2187,354.3782,86.4967,273.6171,4.7622e-05,4.7e-06,0.0,0 STARLINK-3872,1 52453U 22049C   24174.79573479  .00000470  00000-0  47622-4 0  9991,2 52453  53.2187 354.3782 0001275  86.4967 273.6171 15.08837033117930,6917.889,95.438,540.636,538.872,0.0
52453.0,STARLINK-3872,PAYLOAD,2024-06-22 22:16:37,15.0883706,0.0001278,53.2187,353.7835,86.153,273.9608,4.3175e-05,3.99e-06,0.0,0 STARLINK-3872,1 52453U 22049C   24174.92821486  .00000399  00000-0  43175-4 0  9999,2 52453  53.2187 353.7835 0001278  86.1530 273.9608 15.08837060117790,6917.889,95.438,540.638,538.87,0.0
52453.0,STARLINK-3872,PAYLOAD,2024-06-23 17:21:15,15.0883545,0.0001292,53.2188,350.2151,99.6951,260.4187,3.8759e-05,3.29e-06,0.0,0 STARLINK-3872,1 52453U 22049C   24175.72309747  .00000329  00000-0  38759-4 0  9994,2 52453  53.2188 350.2151 0001292  99.6951 260.4187 15.08835450117914,6917.894,95.438,540.653,538.866,0.0
52453.0,STARLINK-3872,PAYLOAD,2024-06-24 10:50:30,15.08836108,0.0001248,53.2186,346.9445,99.487,260.6263,5.3383e-05,5.62e-06,0.0,0 STARLINK-3872,1 52453U 22049C   24176.45173883  .00000562  00000-0  53383-4 0  9994,2 52453  53.2186 346.9445 0001248  99.4870 260.6263 15.08836108118187,6917.892,95.438,540.621,538.894,0.0
52453.0,STARLINK-3872,PAYLOAD,2024-06-24 18:47:25,15.08836797,0.0001266,53.2187,345.4577,92.0134,268.1003,8.287e-05,1.031e-05,0.0,0 STARLINK-3872,1 52453U 22049C   24176.78293902  .00001031  00000-0  82870-4 0  9990,2 52453  53.2187 345.4577 0001266  92.0134 268.1003 15.08836797118077,6917.89,95.438,540.631,538.879,0.0
